{"type": "FeatureCollection", "features": [{"type": "Feature", "geometry": {"type": "LineString", "coordinates": [[-80.12118636499589, 25.82], [-80.1211942, 25.8198904], [-80.1211948, 25.8198151], [-80.1212071, 25.819765], [-80.1212196, 25.8196861], [-80.1212242, 25.8195895], [-80.1212404, 25.8195465], [-80.1212491, 25.8194319], [-80.1212655, 25.8193496], [-80.121278, 25.8192779], [-80.1212944, 25.81921], [-80.1213064, 25.8191456], [-80.1213192, 25.8190597], [-80.1213592, 25.8189919], [-80.1213719, 25.8188915], [-80.121377, 25.8187267], [-80.1213822, 25.818587], [-80.1214024, 25.818519], [-80.1214113, 25.8183793], [-80.1214158, 25.8182969], [-80.1214249, 25.8181536], [-80.1214336, 25.8180426], [-80.121446, 25.817971], [-80.1214468, 25.8178707], [-80.1214475, 25.8177667], [-80.1214641, 25.8176701], [-80.1214886, 25.8175591], [-80.1215213, 25.8174232], [-80.1215381, 25.817305], [-80.1215508, 25.817169], [-80.1215596, 25.8170687], [-80.1215762, 25.8169648000001], [-80.1215927, 25.8168789], [-80.1216367, 25.8168039], [-80.1216929, 25.8167004], [-80.1217334, 25.8165681], [-80.1217581, 25.816457], [-80.1217828, 25.816321], [-80.1218114, 25.8161959], [-80.1218283, 25.8160669], [-80.1218452, 25.8159272], [-80.1218507, 25.8156979], [-80.1218638, 25.8155296], [-80.121869, 25.8153826], [-80.121846, 25.8152715], [-80.1218665, 25.8151712], [-80.1218949, 25.8150889], [-80.1219114, 25.8149995], [-80.1219161, 25.814892], [-80.1219404, 25.8148098], [-80.1219968, 25.8147061], [-80.1220448, 25.8146203], [-80.1220851, 25.8145204], [-80.1221295, 25.8144202], [-80.1221458, 25.8143558], [-80.1221467, 25.8142305], [-80.1221474, 25.8141408], [-80.1221482, 25.8140226], [-80.1221408, 25.8139473], [-80.1221572, 25.8138685], [-80.122166, 25.8137646], [-80.1221864, 25.813686], [-80.1222145999999, 25.8136001], [-80.122247, 25.8135035], [-80.1223033, 25.8133821], [-80.1223395, 25.8133106], [-80.1223638, 25.8132462], [-80.1223885, 25.8131209], [-80.1224011, 25.8130207], [-80.1224137, 25.8129097], [-80.1224302, 25.8128238], [-80.1224506, 25.8127451], [-80.1224673, 25.8126268], [-80.1224919, 25.8125231], [-80.1225245, 25.81238], [-80.1225531, 25.8122726], [-80.1225895, 25.8121654], [-80.1226262, 25.8120186], [-80.1226666, 25.8118898], [-80.1226873, 25.8117825], [-80.1226998, 25.8116965], [-80.1226968, 25.8115712], [-80.1226857, 25.81146], [-80.1226667, 25.8113559], [-80.1226513, 25.8113021], [-80.1226164, 25.8112016], [-80.1225855, 25.8110903], [-80.1225707, 25.8109469], [-80.1225677, 25.8108214], [-80.1225688, 25.8106707], [-80.1225698, 25.8105312], [-80.1225743, 25.8104523], [-80.1225946, 25.8103915], [-80.1226307, 25.8103487], [-80.1226468999999, 25.8102772], [-80.1226795, 25.8101305], [-80.1226844, 25.8100265], [-80.1226772, 25.8099297], [-80.1226701, 25.8098294], [-80.1226506, 25.8097718], [-80.1226552, 25.8097038], [-80.1226834, 25.8096037], [-80.1227119, 25.8095214], [-80.12274, 25.8094571], [-80.1227646, 25.8093676], [-80.1228047, 25.8092855], [-80.1228411, 25.8091817], [-80.1228735, 25.8090924], [-80.1228977, 25.8090172], [-80.1229418, 25.8089315], [-80.122994, 25.8088351], [-80.1230461, 25.8087565], [-80.1230742, 25.8087101], [-80.123063, 25.8086133], [-80.123048, 25.8084913], [-80.1230375, 25.8083264], [-80.1230386, 25.8081795], [-80.1230397, 25.8080220000001], [-80.1230326, 25.8079], [-80.1230413, 25.8078069], [-80.1230737, 25.807696], [-80.123126, 25.8075817], [-80.1231623, 25.8074851], [-80.1231787, 25.807417], [-80.1232229, 25.8073349], [-80.1232594, 25.8072277], [-80.1233116, 25.807124], [-80.12334, 25.8070166], [-80.123392, 25.8069453], [-80.1234164, 25.8068487], [-80.1234369, 25.8067736], [-80.1234732, 25.8066878], [-80.1235216, 25.8065519], [-80.1235778, 25.8064125], [-80.1236382, 25.806291], [-80.1236948, 25.8061588], [-80.1237513, 25.8060014], [-80.1238002, 25.805819], [-80.1238527, 25.8056795], [-80.1239049, 25.8055615], [-80.1239692, 25.8054509], [-80.1240252, 25.8053581], [-80.1240815, 25.8052617], [-80.1241377, 25.8051365], [-80.1241903, 25.8049756], [-80.1242548, 25.8048362], [-80.1243071, 25.8047219], [-80.1243595, 25.8045967], [-80.1243682, 25.804482], [-80.1244128, 25.8043463], [-80.1244532, 25.8042317], [-80.1244935, 25.8041318000001], [-80.124518, 25.8040207], [-80.1245506, 25.8039027], [-80.1245752, 25.803824], [-80.124631, 25.8037419], [-80.1246634, 25.8036346], [-80.1247156, 25.803531], [-80.1247759, 25.8034203], [-80.1248322, 25.803306], [-80.1248843, 25.8032131000001], [-80.1249164, 25.8031451], [-80.1249644, 25.8030809], [-80.1250282, 25.8030205], [-80.1250806, 25.8028989], [-80.125125, 25.8027737], [-80.1251496, 25.8026521], [-80.1251821, 25.8025447], [-80.1252068, 25.8024338], [-80.1252429, 25.8023659], [-80.1252949, 25.8022695], [-80.1253672, 25.8021516], [-80.1254195, 25.8020122], [-80.1254761, 25.8018763], [-80.1255285, 25.8017368], [-80.1255929, 25.8015976], [-80.125661, 25.8014904], [-80.1257093, 25.8013725], [-80.1257459, 25.8012581], [-80.1257825, 25.801122], [-80.1258312, 25.8009754], [-80.1258795, 25.8008432], [-80.1259319, 25.8007216], [-80.1260001, 25.8005965], [-80.1260326, 25.800475], [-80.1260651, 25.8003641], [-80.1260938, 25.8002388], [-80.1261263, 25.80011], [-80.1261592, 25.7999454], [-80.1262075, 25.7998417], [-80.1262122, 25.7997378], [-80.1262447, 25.7996305], [-80.1262971, 25.7995018], [-80.1263412, 25.7994197], [-80.1263857, 25.7993016], [-80.12643, 25.7991872], [-80.1264746, 25.7990585], [-80.1264952, 25.7989439], [-80.1265318, 25.7988151], [-80.1265603, 25.7986934], [-80.1266085, 25.7986006], [-80.1266725, 25.7985149], [-80.1266971, 25.7984256], [-80.1267214, 25.7983183], [-80.1267381, 25.7982001], [-80.1267706, 25.7980963], [-80.1268028, 25.7980249], [-80.1268355, 25.7978888], [-80.1268756, 25.7978102], [-80.1268841999999, 25.7977028], [-80.1269048, 25.797599], [-80.1269647, 25.7975384], [-80.1270763, 25.7974279], [-80.1271481, 25.7973568], [-80.1272159, 25.7972854], [-80.1272639, 25.7972105], [-80.1273041, 25.7971355], [-80.1273126, 25.7970531], [-80.1273133, 25.7969528], [-80.127326, 25.7968489], [-80.1273386, 25.7967667], [-80.1273788, 25.7966736], [-80.1274471, 25.7965415], [-80.127499, 25.7964342], [-80.1275276, 25.7963449], [-80.1275521, 25.7962375], [-80.1275805, 25.7961588], [-80.1276126, 25.7960945], [-80.1276407, 25.7960373], [-80.1276535, 25.7959121], [-80.1276665, 25.7957615], [-80.1276828, 25.7956792], [-80.1277036, 25.7955682], [-80.1277202, 25.795468], [-80.1277446, 25.795375], [-80.127765, 25.7952819], [-80.1278055, 25.7951496], [-80.1278302, 25.7950386], [-80.127843, 25.7948954], [-80.1278635, 25.7948023], [-80.1278685, 25.7946733], [-80.1278695, 25.79453], [-80.1278706, 25.7943795], [-80.1278875, 25.7942184], [-80.1278922, 25.7941395], [-80.1279092, 25.7939855], [-80.127922, 25.7938422], [-80.1279355, 25.7936272], [-80.1279368, 25.7934482], [-80.1279536, 25.793312], [-80.1279743, 25.7931832], [-80.1279872, 25.7930542], [-80.1280038, 25.7929326], [-80.1280282, 25.7928611], [-80.1280369, 25.7927356], [-80.1280457, 25.7926103], [-80.1280623, 25.7925243], [-80.1280907, 25.7924171], [-80.1280957, 25.7922701], [-80.128124, 25.7922094], [-80.1281289, 25.7920768], [-80.128165, 25.7920018], [-80.1281895, 25.7919196], [-80.1281904, 25.7918012], [-80.1282223, 25.7917443], [-80.1282548, 25.7916404], [-80.1282797, 25.7914757], [-80.1282962, 25.791379], [-80.128325, 25.7912502], [-80.1283454, 25.7911536], [-80.1283896, 25.7910571], [-80.128458, 25.790932], [-80.12851, 25.7908392000001], [-80.1285702, 25.7907357], [-80.1286221, 25.7906571], [-80.1286703, 25.7905713], [-80.1287029, 25.7904569], [-80.128743, 25.7903711], [-80.1287795, 25.790253], [-80.1288118, 25.790178], [-80.1288323, 25.7900706], [-80.1288494, 25.7899059], [-80.1288584, 25.7897446], [-80.1288641, 25.7895296], [-80.1288883, 25.7894509], [-80.1289288, 25.7893473], [-80.128965, 25.7892472], [-80.1289856, 25.789129], [-80.1290062, 25.789018], [-80.1290152, 25.7888784], [-80.1290124, 25.7887315], [-80.1290134, 25.7885882], [-80.1290022, 25.7884913], [-80.1289913, 25.788355], [-80.1289922, 25.788226], [-80.1290011, 25.7881079], [-80.1290177, 25.7880075], [-80.1290224, 25.7878965], [-80.1290153, 25.7877745], [-80.128992, 25.7877171], [-80.1289968, 25.7875917], [-80.1289975, 25.7875093], [-80.1290218, 25.7874378], [-80.1290344, 25.7873268], [-80.1290394, 25.7872049], [-80.1290519, 25.7871047], [-80.1290687, 25.7869687], [-80.1290699, 25.7868038], [-80.1290788, 25.7866892], [-80.1290913, 25.7865854], [-80.129116, 25.7864709], [-80.1291327, 25.7863312], [-80.12913, 25.7861663], [-80.1291308, 25.7860516], [-80.1291551, 25.7859909], [-80.1291717, 25.785862], [-80.1292005, 25.7857295], [-80.1292407, 25.7856329], [-80.129281, 25.7855329], [-80.1292862, 25.7853825], [-80.1293065999999, 25.7852929], [-80.1293078, 25.7851281], [-80.1293167, 25.7849848], [-80.1293334, 25.7848666], [-80.1293539, 25.7847664], [-80.1294029, 25.7845767], [-80.1294476, 25.7844087], [-80.1294841, 25.7842833], [-80.129469, 25.7842009], [-80.1295011, 25.7841223], [-80.1295216, 25.7840327], [-80.1295226, 25.7838966], [-80.1295197, 25.7837497], [-80.12956, 25.7836424], [-80.1295691, 25.7834954], [-80.1295703, 25.7833308], [-80.1295671, 25.7832303], [-80.1295399, 25.7831513], [-80.1295248, 25.7830581], [-80.1295058, 25.7829505], [-80.1294747, 25.7828571], [-80.129484, 25.7826815], [-80.1294815, 25.7824953000001], [-80.1294827, 25.7823303], [-80.1294795, 25.782205], [-80.1295039, 25.7821298], [-80.1295363, 25.7820189], [-80.1295685, 25.7819511], [-80.1295731, 25.7818579], [-80.1296013, 25.7817936], [-80.1296456, 25.7816755], [-80.1296742, 25.7815718], [-80.1297186, 25.7814682], [-80.1297588, 25.781368], [-80.1298109, 25.7812859], [-80.1298907, 25.7811896], [-80.129959, 25.7810575], [-80.1299835, 25.7809393], [-80.1300236, 25.7808608], [-80.1300403, 25.7807461], [-80.1300414, 25.7805957], [-80.1300622, 25.7804524], [-80.1300832, 25.7803127], [-80.1301038, 25.7802055], [-80.1301206, 25.7800658], [-80.130153, 25.7799548], [-80.1302011, 25.7798798], [-80.1302494, 25.7797655], [-80.1302779, 25.7796474], [-80.1303068, 25.7795151], [-80.1303353, 25.7793754], [-80.1303758, 25.7792609], [-80.1304164, 25.779125], [-80.130453, 25.7789854], [-80.1304737, 25.7788567], [-80.1304983, 25.7787385], [-80.1305349, 25.7786061], [-80.1305595, 25.7785023], [-80.130561, 25.7782909], [-80.1305735, 25.7781978], [-80.1306178, 25.778105], [-80.1306858, 25.7780085], [-80.130714, 25.7779299], [-80.1307581, 25.7778657], [-80.1308418, 25.7777622], [-80.130886, 25.7776836], [-80.1309224, 25.7775763], [-80.1309667, 25.7774583], [-80.1310272, 25.7773226], [-80.1310754, 25.7771939], [-80.1311041, 25.7770793], [-80.1311325, 25.7769791], [-80.1311805, 25.7769112], [-80.131201, 25.7768218000001], [-80.1312336, 25.776693], [-80.1312703, 25.7765499], [-80.1313029, 25.7764248], [-80.1313632, 25.7762818], [-80.1313883, 25.7761207], [-80.1314285, 25.7760169], [-80.1314652, 25.775881], [-80.1314978, 25.775745], [-80.1315341, 25.775652], [-80.1315703, 25.775577], [-80.1315752, 25.7754408], [-80.1315998, 25.7753228], [-80.1316363, 25.7752046], [-80.1316649, 25.7750866], [-80.1316856, 25.7749613], [-80.1317026, 25.774793], [-80.1317152, 25.7746784], [-80.13174, 25.7745567], [-80.1317646, 25.7744314], [-80.1317893, 25.7742882], [-80.1318257, 25.7741808], [-80.1318664, 25.774045], [-80.131927, 25.7738697], [-80.1319438, 25.7737444], [-80.1319449, 25.7735867], [-80.1319652, 25.7735116], [-80.1319896, 25.773415], [-80.1320104, 25.7733041], [-80.1320310999999, 25.7731715], [-80.1320635, 25.7730535], [-80.1320725, 25.7729353], [-80.1320933, 25.7727777], [-80.1321137, 25.7726811], [-80.1321264, 25.7725809], [-80.1321511, 25.7724412], [-80.1321678, 25.7723267], [-80.1321844, 25.7722191], [-80.132221, 25.7720833], [-80.1322537, 25.7719437], [-80.1322984, 25.7717827], [-80.1323393, 25.7715859], [-80.1323523, 25.7714497], [-80.1323769, 25.7713209], [-80.1323977, 25.7711812], [-80.1324264, 25.7710487], [-80.1324433, 25.7709091], [-80.1324481, 25.7707874], [-80.1324723, 25.7707374], [-80.1325242, 25.7706553], [-80.1325531, 25.7705084], [-80.1325659, 25.7703867], [-80.1325705, 25.7702826], [-80.1325433, 25.770211], [-80.1325363, 25.770089], [-80.1325376, 25.769917], [-80.1325387, 25.7697665], [-80.1325434, 25.7696627], [-80.1325602, 25.7695195], [-80.1325731, 25.7693941], [-80.1325937, 25.7692759], [-80.1326063, 25.7691613], [-80.132605, 25.7691167], [-80.1326031, 25.769061], [-80.1326121, 25.7690393], [-80.1326314, 25.7689931], [-80.1326478, 25.7689108], [-80.1326918, 25.7688428], [-80.1327202, 25.7687535], [-80.1327288, 25.768646], [-80.1327649999999, 25.7685674], [-80.1328131, 25.768496], [-80.132818, 25.7683564], [-80.1328429, 25.7681987], [-80.1328717, 25.7680555], [-80.1328807, 25.7678908], [-80.1328818, 25.7677366], [-80.1328947, 25.7676042000001], [-80.1329153, 25.7674932], [-80.1329163, 25.7673498], [-80.1329173, 25.7672208], [-80.1328941, 25.7671562], [-80.1328829, 25.7670523], [-80.1328837, 25.7669376], [-80.1328685, 25.7668514], [-80.1328656, 25.7667118], [-80.1328628, 25.7665576], [-80.1328599, 25.7664107], [-80.1328448, 25.7663066], [-80.1328389, 25.7660271], [-80.1328412, 25.7657117], [-80.1328386, 25.7655254], [-80.1328631, 25.765418], [-80.1328755, 25.7653463], [-80.1329546, 25.7653719], [-80.1330689, 25.7654228], [-80.1331519, 25.7654447], [-80.1332742, 25.7654993], [-80.133341, 25.7655499], [-80.1334475, 25.7655897], [-80.1335857, 25.765641], [-80.1336922, 25.7656845], [-80.1338146, 25.7657354], [-80.1339527, 25.7657936], [-80.1340473, 25.7658335], [-80.1341856, 25.7658738], [-80.1342923, 25.7658924], [-80.1343793, 25.7659], [-80.1344545, 25.7659004], [-80.1345218, 25.7659008], [-80.1345855, 25.7658546], [-80.1346492, 25.7657905], [-80.134725, 25.7657445], [-80.1348163, 25.7656842], [-80.1349155, 25.7656345], [-80.1349871, 25.7655846], [-80.1350547, 25.7655278], [-80.1351658, 25.7654998], [-80.1352414999999, 25.765443], [-80.1353367, 25.7654113], [-80.1354242, 25.7653508], [-80.1355392, 25.7653299], [-80.1357212, 25.7653347], [-80.1358397, 25.7653498], [-80.1359742, 25.7653935], [-80.1360885, 25.7654264], [-80.1361674, 25.7654627], [-80.1362345, 25.7654953], [-80.1363056, 25.7655173], [-80.1363805, 25.76555], [-80.1364754, 25.7655577], [-80.1365465, 25.765576], [-80.1365818, 25.7656122], [-80.1365813, 25.765691], [-80.1365769, 25.7657518], [-80.1365091, 25.7658123000001], [-80.1364653, 25.7658622], [-80.1364567, 25.7659483], [-80.1364917, 25.7660273], [-80.1365349, 25.7660884], [-80.1366021, 25.766114], [-80.1366373, 25.7661643], [-80.1366408, 25.7662253], [-80.1366244, 25.766304], [-80.1365916, 25.7664472], [-80.1365638, 25.7666133]]}, "properties": {"project": "EC19B01", "date": "19130101", "kind": "Natural.Mean High Water", "source": "T03375"}}, {"type": "Feature", "geometry": {"type": "LineString", "coordinates": [[-80.1407743, 25.7668387000001], [-80.1408811, 25.7668232], [-80.1408931, 25.7667697], [-80.1408285, 25.7667105], [-80.1407042, 25.7667097], [-80.1406625, 25.766763], [-80.1406797, 25.7668273], [-80.1407743, 25.7668387000001]]}, "properties": {"project": "EC19B01", "date": "19130101", "kind": "Natural.Mean High Water", "source": "T03375"}}, {"type": "Feature", "geometry": {"type": "LineString", "coordinates": [[-80.14244, 25.7640934], [-80.1422811, 25.7641534], [-80.1421819, 25.7641743], [-80.1421341, 25.7642134], [-80.1421456, 25.7642708], [-80.1422682, 25.7642824], [-80.1424068, 25.7642832], [-80.1425372, 25.7642911], [-80.1427233, 25.7642957], [-80.1428538, 25.7643037], [-80.1429248, 25.7643328], [-80.1430155, 25.7643727], [-80.1431418, 25.7644201], [-80.1432208, 25.7644455], [-80.1433276, 25.7644642], [-80.1433909, 25.7644717], [-80.1434305, 25.7644611], [-80.1434665, 25.7644076], [-80.1434869, 25.7643253], [-80.1434913, 25.7642573], [-80.1434918, 25.7641891], [-80.1434368, 25.7641315], [-80.1433856, 25.7640956], [-80.1432749, 25.7640661], [-80.1431526, 25.7640294], [-80.1430142, 25.7640036], [-80.1428955, 25.7639958], [-80.1428043, 25.7640061], [-80.1426816, 25.7640231], [-80.142531, 25.7640617], [-80.14244, 25.7640934]]}, "properties": {"project": "EC19B01", "date": "19130101", "kind": "Natural.Mean High Water", "source": "T03375"}}, {"type": "Feature", "geometry": {"type": "LineString", "coordinates": [[-80.1583516, 25.7265266], [-80.1583946, 25.7266073], [-80.1584458, 25.7266507000001], [-80.1585207, 25.7266797], [-80.1586233, 25.7267198], [-80.1587062, 25.726756], [-80.1587333, 25.7268242], [-80.1587645, 25.7268747], [-80.1588159, 25.7269], [-80.1588831, 25.7269183], [-80.1588707, 25.7269863], [-80.1588543, 25.727058], [-80.158767, 25.7271041], [-80.1586799, 25.7271071], [-80.1585928, 25.7271137], [-80.1585136, 25.7271348], [-80.1584025, 25.7271808], [-80.1582716, 25.7272158], [-80.1581842, 25.7272655], [-80.1580496, 25.7272862], [-80.1579225999999, 25.7273464], [-80.1578113, 25.7274031], [-80.1577359, 25.7274529], [-80.1576681, 25.7275205], [-80.1575294, 25.7275663], [-80.15745, 25.7275981], [-80.1573191, 25.7276475], [-80.1572238, 25.72769], [-80.1571209, 25.7277073], [-80.1570255, 25.7277605], [-80.1569341, 25.7278138], [-80.1568861, 25.7278851], [-80.156771, 25.7279418], [-80.156656, 25.7279734], [-80.1565131999999, 25.7280336], [-80.1564297, 25.7281011], [-80.1563381, 25.7281938], [-80.1562978, 25.7282724], [-80.1562656, 25.7283509], [-80.1561981, 25.7284044], [-80.1560873, 25.728393], [-80.1559567, 25.7283958], [-80.1557864, 25.7284198], [-80.1556282, 25.7284261], [-80.1555094, 25.7284433], [-80.1553984, 25.7284749], [-80.1553149, 25.7285247], [-80.1552314, 25.7285851], [-80.155152, 25.7286277], [-80.155041, 25.7286449], [-80.1549656, 25.7286767], [-80.1548903, 25.7287085], [-80.1548147, 25.7287655], [-80.1547512, 25.7287938], [-80.1546757999999, 25.7288219], [-80.1546278, 25.728897], [-80.154501, 25.7289177], [-80.1544375, 25.7289712], [-80.1543698, 25.7290245], [-80.1543336, 25.7291031], [-80.1542342, 25.7291635], [-80.154123, 25.7292345], [-80.1540476, 25.7292663], [-80.1539562, 25.7293088], [-80.1538613, 25.7293011], [-80.1537189, 25.7293003], [-80.1535804, 25.7292995], [-80.1534143, 25.7292985], [-80.1532601, 25.7292796], [-80.1530663, 25.7292749], [-80.1528646, 25.7292702], [-80.1527064, 25.7292585], [-80.1525286, 25.7292218], [-80.1524022, 25.729203], [-80.1522956, 25.7291666], [-80.1521574, 25.7291192], [-80.1520349, 25.7290969], [-80.1519284, 25.7290748], [-80.1518848, 25.7290566], [-80.1518258, 25.7290097], [-80.1517548, 25.7289806], [-80.1516169, 25.7289046], [-80.1515026, 25.7288466], [-80.1513805, 25.7287668], [-80.1512703, 25.7286983], [-80.1511562, 25.7285901], [-80.1510779, 25.7284893], [-80.1509401, 25.7283882], [-80.1507981, 25.7283229], [-80.1506677, 25.7282899], [-80.1505773, 25.7282105], [-80.1504827, 25.7281633], [-80.1503327, 25.7281159], [-80.1501984, 25.7280936], [-80.1500918999999, 25.72805], [-80.1499657, 25.7279883], [-80.1498354, 25.7279374], [-80.1497449, 25.7278831], [-80.1496937, 25.7278469], [-80.1495752, 25.7278283], [-80.1494686, 25.7277954], [-80.1493895999999, 25.7277662], [-80.1493224, 25.7277623], [-80.1492631, 25.7277549], [-80.1491723, 25.7277292], [-80.1490775, 25.7276928], [-80.1489669, 25.7276814], [-80.1488126, 25.7276661], [-80.1486426, 25.7276651], [-80.1485354, 25.7277219], [-80.1484639, 25.7277608], [-80.1483727, 25.727789], [-80.1482857, 25.7277885], [-80.1482344, 25.7277667], [-80.1481795, 25.7276984], [-80.1481167, 25.7276156], [-80.1480698, 25.7275365], [-80.1480109, 25.7274608], [-80.1479841, 25.7273675], [-80.1479532, 25.7272597], [-80.1479186, 25.727114], [-80.1478794, 25.7270443], [-80.1478325, 25.726976], [-80.1478175, 25.7268611], [-80.1477871, 25.7266818], [-80.1477562, 25.726567], [-80.1477412, 25.7264487], [-80.1477143, 25.7263482], [-80.1477116, 25.7261797], [-80.1477087, 25.7260113], [-80.1477063, 25.7258105], [-80.1477158, 25.7255921], [-80.1477174, 25.725377], [-80.1477228, 25.7251692], [-80.1477239, 25.7250115000001], [-80.1477049, 25.7249039], [-80.1476899, 25.7247784], [-80.1477032, 25.724585], [-80.1476882, 25.7244702], [-80.1476612, 25.724359], [-80.1476386, 25.7242155], [-80.1476202, 25.7240254], [-80.1476017, 25.7238461], [-80.1475786, 25.7237241], [-80.1475798, 25.7235558], [-80.1475816, 25.7232978], [-80.147599, 25.7231006], [-80.1476277, 25.7229647], [-80.1476529, 25.7227534], [-80.1476662, 25.72256], [-80.1476832, 25.7224203], [-80.1477158, 25.7222557], [-80.1477523, 25.7221197], [-80.1477728999999, 25.7220122], [-80.1477739, 25.7218689], [-80.1477787, 25.7217615], [-80.1478032, 25.721647], [-80.1478322, 25.7214786], [-80.1478724, 25.7213894], [-80.1479089, 25.7212533], [-80.1479214, 25.7211602], [-80.1479428, 25.7209525], [-80.1479671, 25.7208594], [-80.1479959, 25.7207127], [-80.1480207, 25.7205588], [-80.1480454, 25.7204191], [-80.1480736, 25.7203261], [-80.1481142, 25.7201973], [-80.1481625, 25.7200973], [-80.1481989, 25.7199829], [-80.1482473, 25.7198327], [-80.1482999999999, 25.719661], [-80.1483447, 25.7195071], [-80.1483813, 25.7193747], [-80.1484176, 25.7192638], [-80.1484539, 25.7191673], [-80.1484745, 25.7190528], [-80.1484988, 25.718974], [-80.1485195, 25.7188595], [-80.1485439, 25.7187413], [-80.1485444, 25.7186589], [-80.1485807, 25.718609], [-80.1485854, 25.71848], [-80.1485905, 25.7183187], [-80.1486075, 25.7181503], [-80.1486246, 25.7179785], [-80.1486415, 25.7178209], [-80.1486697, 25.7177422], [-80.1486945, 25.7176061], [-80.1487032, 25.7174809], [-80.1487093, 25.717339], [-80.1487129, 25.7172552], [-80.1487653, 25.7171121], [-80.1488118, 25.7170292], [-80.1488254, 25.7170049], [-80.1488337, 25.7169332], [-80.1488739, 25.7168618], [-80.148902, 25.7167867], [-80.1489264, 25.7166938], [-80.148959, 25.7165792], [-80.1489992, 25.7164648], [-80.1490474, 25.7163718], [-80.149115, 25.7163256], [-80.1491549, 25.7162794], [-80.1491753, 25.7161863], [-80.1492471, 25.7161079], [-80.149303, 25.7160221], [-80.149367, 25.7159438], [-80.149415, 25.7158723], [-80.1494507, 25.7158546], [-80.1494672, 25.7157615], [-80.1495074, 25.715665], [-80.1495558, 25.7155469], [-80.149604, 25.7154327], [-80.1496602, 25.715304], [-80.1497127, 25.7151681], [-80.1497649, 25.7150573], [-80.1498095, 25.7149214], [-80.1498659, 25.7147855], [-80.1499101, 25.7146676], [-80.1499664, 25.7145353], [-80.1500349, 25.7143637], [-80.1500673, 25.7142636], [-80.1501229, 25.7142279], [-80.1501512, 25.7141492], [-80.150203, 25.714071], [-80.1502394, 25.713967], [-80.1502876, 25.7138670000001], [-80.1503397, 25.7137706], [-80.1503918, 25.7136812], [-80.1504477, 25.7136062], [-80.150484, 25.7135062], [-80.1505285, 25.7133774], [-80.1505846, 25.7132845], [-80.1506329, 25.7131523], [-80.1506813, 25.7130308], [-80.1507455, 25.712902], [-80.1507978, 25.7127841], [-80.1508741, 25.7126197], [-80.1509265, 25.712491], [-80.1509826, 25.7123767], [-80.1510309, 25.7122551], [-80.1510911, 25.7121372], [-80.1511433, 25.7120085], [-80.1511876, 25.711912], [-80.1511922, 25.7118116], [-80.1512326, 25.7117188], [-80.151265, 25.7115935], [-80.1513095, 25.7114611], [-80.1513578, 25.7113505], [-80.1514176, 25.7112862], [-80.15145, 25.711186], [-80.1514979, 25.7111003], [-80.1515462999999, 25.7109859], [-80.1515709, 25.7108534], [-80.1516033, 25.7107533], [-80.1516637, 25.710621], [-80.1516959, 25.7105172], [-80.1517482, 25.7104029], [-80.1517926, 25.7102814], [-80.1518488, 25.7101742], [-80.1518969, 25.7100846], [-80.1519372, 25.7099704], [-80.1519852, 25.7098918], [-80.1520333, 25.7098097000001], [-80.1520971, 25.7097384], [-80.1521451, 25.7096599], [-80.1521738, 25.7095275], [-80.1522104, 25.7093737], [-80.1522629, 25.709234], [-80.1523153, 25.7091018], [-80.1523478, 25.7089765], [-80.152392, 25.7088729], [-80.1524719, 25.708755], [-80.1525404, 25.7085798], [-80.1525929, 25.7084261], [-80.1526414, 25.7082866], [-80.1526777, 25.7081865], [-80.1527377, 25.7080901], [-80.1527859, 25.7079972], [-80.15283, 25.7078792], [-80.1528827, 25.7077254], [-80.152963, 25.707586], [-80.1530271, 25.7074359], [-80.1530869, 25.707386], [-80.153115, 25.7073182], [-80.1531511, 25.7072467], [-80.1531915, 25.7071287], [-80.1532481, 25.7069714], [-80.1532964, 25.7068104], [-80.1533649, 25.706671], [-80.153429, 25.7065638], [-80.1534575, 25.7064386], [-80.1535101, 25.7062633], [-80.1535629, 25.7060772], [-80.1536033, 25.7059593], [-80.1536277, 25.7058698], [-80.1536959, 25.7057268], [-80.1537522, 25.705616], [-80.1538006, 25.7054621], [-80.1538134, 25.7053619], [-80.1538533, 25.7052905], [-80.1538894, 25.7052119], [-80.1539534, 25.7051263], [-80.1540213, 25.7050192], [-80.1541055, 25.7048584], [-80.1541701, 25.7046903], [-80.1542102, 25.704601], [-80.1542628, 25.7044365], [-80.1542913, 25.7043112], [-80.1543355, 25.704229], [-80.1543835, 25.7041611], [-80.1543958, 25.7040752], [-80.1544083, 25.7039929], [-80.1544446, 25.703907], [-80.1544929, 25.7037963], [-80.1545491, 25.7036712], [-80.1545974, 25.7035388], [-80.1546181, 25.7034243], [-80.1546584, 25.7033171], [-80.1547062, 25.7032492], [-80.1547468, 25.7031276], [-80.1547675, 25.702995], [-80.1547882, 25.7028591], [-80.154821, 25.7027015], [-80.1548495, 25.7025727], [-80.1548861, 25.7024296], [-80.1549146999999, 25.7023041], [-80.1549274, 25.702179], [-80.154968, 25.7020503], [-80.1550201, 25.7019538], [-80.1550482, 25.7018608], [-80.1550769, 25.7017534], [-80.1551132, 25.7016496], [-80.1551776, 25.7014816], [-80.1552259, 25.7013672], [-80.1552504, 25.701249], [-80.1552792, 25.701106], [-80.1553354, 25.700988], [-80.155388, 25.7008162], [-80.1554323, 25.7006982], [-80.1554927, 25.7005625], [-80.1555253, 25.7004264], [-80.1555782, 25.7002045], [-80.1555951, 25.7000469], [-80.1556159, 25.6998966], [-80.1556644, 25.6997608], [-80.155717, 25.6995924], [-80.1557412, 25.6995211], [-80.1557505, 25.6993455], [-80.1557751, 25.6992023], [-80.1558079, 25.6990448], [-80.1558324, 25.6989267], [-80.155857, 25.69883], [-80.1558781, 25.6986295], [-80.1558989, 25.6984898], [-80.155924, 25.6982893], [-80.1559292, 25.698103], [-80.1559695, 25.6979885], [-80.1560023, 25.6978346], [-80.1560389, 25.697688], [-80.1560639, 25.697534], [-80.1560966, 25.6973836], [-80.1561369, 25.6972656], [-80.1561537, 25.6971295], [-80.1561708, 25.696954], [-80.156192, 25.6967462], [-80.1562129, 25.6965923], [-80.1562177, 25.6964598], [-80.1562342, 25.6963738], [-80.156239, 25.6962413], [-80.1562404, 25.6960513], [-80.1562535, 25.6958793], [-80.1562777, 25.6958008], [-80.1562942, 25.6957112], [-80.156271, 25.6956501], [-80.1562677, 25.6955569], [-80.1562445, 25.69546], [-80.1562529, 25.6954064], [-80.1563005, 25.6953708], [-80.1563052, 25.695292], [-80.1563015999999, 25.6952202], [-80.1562786, 25.6951234], [-80.1562872, 25.6950087], [-80.1563156, 25.6949265], [-80.1563049, 25.6947473], [-80.1562865, 25.6945643], [-80.156284, 25.6943601], [-80.156286, 25.6940699], [-80.1563034, 25.6938584], [-80.1563085, 25.6936829], [-80.1563056, 25.6935467], [-80.1563032, 25.6933245], [-80.1562963, 25.6931705], [-80.1562973, 25.6930199], [-80.1562984, 25.6928694], [-80.1562993, 25.6927404], [-80.1563003, 25.6926042], [-80.1563013, 25.6924537], [-80.1562907, 25.6922924], [-80.1562836, 25.6921633], [-80.1562847, 25.6920164], [-80.1562895, 25.6918802], [-80.1563061, 25.6917728], [-80.1563112, 25.691608], [-80.1563318, 25.6915078], [-80.1563406, 25.6913753], [-80.1563458, 25.691196], [-80.1563388, 25.6910813], [-80.1563398, 25.6909417], [-80.1563324, 25.6908555], [-80.1563171, 25.6907695], [-80.156318, 25.6906474], [-80.1563186, 25.6905616], [-80.1563156, 25.6904326], [-80.1562927, 25.690318], [-80.1562897, 25.6901888], [-80.1562909, 25.6900203], [-80.1562922, 25.6898376], [-80.1562936, 25.6896405], [-80.1563025, 25.6894829], [-80.1562961, 25.6892893], [-80.1562973, 25.6891173], [-80.1562945, 25.6889273], [-80.1562755, 25.6888233], [-80.1562726, 25.6886835], [-80.1562737, 25.6885223], [-80.1562387, 25.6884324], [-80.1562157, 25.6883357], [-80.1562087, 25.6881994], [-80.1562018, 25.6880666], [-80.1561948, 25.6879269], [-80.1561957, 25.6877907000001], [-80.1562085, 25.6876761], [-80.1562134, 25.6875328], [-80.1562147, 25.6873536], [-80.1562038, 25.6872281], [-80.1561766, 25.6871491], [-80.1561652, 25.6870702000001], [-80.1561346, 25.6869447], [-80.1560919, 25.686819], [-80.1560413, 25.6866968], [-80.1560304, 25.686575], [-80.1559878, 25.686442], [-80.1559887, 25.6863059], [-80.155982, 25.6861517], [-80.155963, 25.6860405], [-80.155956, 25.6859008], [-80.1559489, 25.6858003], [-80.1559257, 25.6857107], [-80.155919, 25.6855494], [-80.1559242, 25.6853595], [-80.1559328, 25.6852734], [-80.1559017, 25.6852015], [-80.1558785, 25.6851012], [-80.1558719, 25.6849362], [-80.1558648, 25.6848252], [-80.1558376, 25.6847425], [-80.1558424, 25.6846278], [-80.1558318, 25.6844594], [-80.1558287, 25.6843196], [-80.1558295, 25.684205], [-80.1558025, 25.6841224], [-80.1557874, 25.6840182], [-80.1557683, 25.6839214], [-80.1557452, 25.6838245], [-80.1557342, 25.6837063], [-80.1556952, 25.6836093], [-80.1556488, 25.6834584], [-80.1556222, 25.6833149], [-80.1556072, 25.6832039], [-80.1555449, 25.6830781], [-80.1555101, 25.6829595], [-80.1554913, 25.6828233], [-80.1554681, 25.6827299], [-80.1554492, 25.6826116], [-80.1554221, 25.6825433], [-80.155387, 25.682475], [-80.1553835, 25.6823855], [-80.155384, 25.6823281], [-80.1553608, 25.6822599], [-80.1553059, 25.6821843], [-80.1552472, 25.6820907], [-80.1552162, 25.6820082], [-80.1551732, 25.6819291], [-80.1551578999999, 25.6818609], [-80.1551432, 25.681721], [-80.1551481, 25.6815777], [-80.1551454, 25.6814058000001], [-80.1551301, 25.6813268], [-80.155119, 25.6812084], [-80.1551125, 25.6810257], [-80.1551096, 25.6808608], [-80.1550988, 25.6807245], [-80.1550953, 25.6806421], [-80.1550604, 25.6805451], [-80.1550334, 25.6804626], [-80.1550101, 25.6803765], [-80.1550109, 25.6802689], [-80.1549839, 25.6801864], [-80.1549844, 25.6801111], [-80.1549814, 25.6799749], [-80.1549703, 25.6798673], [-80.1549552, 25.6797597], [-80.1549084, 25.6796662], [-80.1548775, 25.6795909000001], [-80.1548663, 25.6794797], [-80.1548632, 25.6793576], [-80.1548362, 25.6792501], [-80.1547973, 25.6791352], [-80.154747, 25.6790023], [-80.154744, 25.6788769], [-80.1547014, 25.6787368], [-80.1546825, 25.6786185], [-80.1546756, 25.6784824], [-80.1546685, 25.6783569], [-80.1546494, 25.6782601], [-80.1546066, 25.6781701], [-80.1545634, 25.6781161], [-80.1545166, 25.6780406], [-80.1544657, 25.6779579], [-80.1544507, 25.6778396], [-80.1544519, 25.6776675], [-80.1544447, 25.6775564], [-80.1544022, 25.6774307], [-80.1543516, 25.6772943], [-80.154301, 25.67719], [-80.1542505, 25.6770607], [-80.1542513, 25.6769496], [-80.1541845, 25.6768882], [-80.1541454, 25.6768235], [-80.1541261, 25.6767697], [-80.154099, 25.6766907], [-80.1540602, 25.6765687], [-80.1540296, 25.6764681], [-80.1539788, 25.6763567], [-80.1539596, 25.6762743], [-80.1539207, 25.6761701], [-80.1538742, 25.6760479], [-80.1538509, 25.6759654], [-80.1538041, 25.6758862], [-80.1537732, 25.6757785], [-80.1537302, 25.6756994], [-80.1537194, 25.6755597], [-80.1537159, 25.6754773], [-80.1536892, 25.6753623], [-80.1536426, 25.6752295], [-80.1536118, 25.6751038], [-80.1536086, 25.6750035], [-80.1535499, 25.6749279], [-80.153511, 25.6748309], [-80.1534761, 25.6747378], [-80.153457, 25.6746227], [-80.1534698, 25.6744975], [-80.1534709, 25.6743433], [-80.1534875, 25.6742396], [-80.1535241, 25.6740927], [-80.1535605, 25.6739818], [-80.1536049, 25.6738424], [-80.1536336, 25.6737063], [-80.1536502, 25.6735918], [-80.1536825, 25.6735025], [-80.1536875, 25.6733483], [-80.1537159, 25.6732661], [-80.1537563, 25.673141], [-80.1537849, 25.6730012], [-80.1538056, 25.672858], [-80.153803, 25.6726788], [-80.1537721, 25.672564], [-80.1537694, 25.6723884], [-80.1537621, 25.672313], [-80.1537513, 25.6721554], [-80.1537524, 25.6719977], [-80.1537769, 25.6718795], [-80.1538176, 25.6717436], [-80.153858, 25.6716076], [-80.1538983, 25.6714967], [-80.1539383, 25.6714254], [-80.1539787, 25.6713324], [-80.1540345, 25.6712682], [-80.1541022, 25.6712042], [-80.1541898, 25.6711007], [-80.154246, 25.6709935], [-80.1542702, 25.6709256], [-80.1542906, 25.6708361], [-80.1543264, 25.6707969], [-80.1543899, 25.6707757], [-80.1544222, 25.6706935], [-80.1544663, 25.6705862], [-80.1544947, 25.6704754], [-80.1545035, 25.6703606], [-80.1545277, 25.6702963], [-80.1545444, 25.6701674], [-80.1545493, 25.6700277], [-80.1545742, 25.6698773], [-80.1545986, 25.6697806], [-80.1546074, 25.6696409], [-80.1546238, 25.6695586], [-80.1546365, 25.6694405], [-80.1546805999999, 25.6693475], [-80.1547171, 25.6692223], [-80.1547696, 25.6690686], [-80.1548025, 25.6689002], [-80.1548312, 25.6687535], [-80.1548676, 25.6686499], [-80.1549276, 25.6685391], [-80.1549916, 25.6684427], [-80.1550595, 25.6683284], [-80.1551117, 25.6682212], [-80.155188, 25.6680781], [-80.1552521999999, 25.6679353], [-80.1552843, 25.6678639], [-80.1553163, 25.6678175], [-80.155368, 25.6677855], [-80.1554199, 25.6677141], [-80.1554641, 25.6676032], [-80.1555043, 25.6675031], [-80.1555604, 25.6673995], [-80.1556324, 25.6672815], [-80.1556965, 25.6671674], [-80.155741, 25.6670457], [-80.155765, 25.6669707], [-80.1558255, 25.6668884]]}, "properties": {"project": "EC19B01", "date": "19130101", "kind": "Natural.Mean High Water", "source": "T03375"}}, {"type": "Feature", "geometry": {"type": "LineString", "coordinates": [[-80.1559891, 25.6666024], [-80.1560136, 25.6665206], [-80.1560536, 25.6664456], [-80.1561174, 25.6663563], [-80.1561657, 25.6662491], [-80.1562336, 25.6661457], [-80.1562776, 25.6660705], [-80.1563533, 25.6660064], [-80.1564209, 25.665928], [-80.1564809, 25.6658496], [-80.156505, 25.6657888], [-80.1566081, 25.6657318], [-80.1566996, 25.6656716], [-80.1567555, 25.6656003], [-80.1568745, 25.6655436], [-80.1569935, 25.6655013], [-80.1570925, 25.6654697], [-80.157168, 25.6654162], [-80.1572514, 25.6653701], [-80.1573464, 25.6653421], [-80.1574495999999, 25.6652997], [-80.1576118, 25.6652827], [-80.1577662, 25.665262], [-80.1578454, 25.6652518], [-80.1580115, 25.665242], [-80.1581461, 25.6652392], [-80.1582725, 25.6652578], [-80.1583749, 25.6652871], [-80.1584933, 25.665327], [-80.1585802, 25.6653528000001], [-80.1586828, 25.6653856], [-80.1587657, 25.6654111], [-80.1588405, 25.6654438], [-80.1589075, 25.6654837], [-80.1589467, 25.6655341], [-80.1589977, 25.6655881], [-80.1590648, 25.6656136], [-80.1591081, 25.6656246], [-80.1591713, 25.6656536], [-80.1592184, 25.6657077], [-80.1592533, 25.6657759], [-80.1592885, 25.6658406], [-80.1593432, 25.6659269], [-80.1594142, 25.6659704], [-80.1594415, 25.6660242], [-80.1594923, 25.6661069], [-80.159547, 25.6661933], [-80.1595821, 25.6662724], [-80.159613, 25.6663585], [-80.159656, 25.6664341], [-80.1597108, 25.6665167], [-80.1597736, 25.6665926], [-80.1598441, 25.6666896], [-80.1598833, 25.6667292], [-80.1599223, 25.6668297000001], [-80.159973, 25.6669089], [-80.1600314, 25.667049], [-80.160098, 25.6671497], [-80.1601292, 25.6671858], [-80.1601324, 25.6673149], [-80.1601236, 25.667433], [-80.1600957, 25.6674687], [-80.1600992, 25.6675548], [-80.160138, 25.6676374], [-80.1602007, 25.6677273], [-80.1602437, 25.6677814], [-80.160275, 25.6678424], [-80.1603021, 25.6679143], [-80.1602935, 25.6680181], [-80.1602929, 25.6681042], [-80.1603318, 25.6681904], [-80.1603748, 25.6682803], [-80.1604058, 25.6683412], [-80.1604172, 25.6684166], [-80.1604522, 25.6685029], [-80.1604908, 25.6686392], [-80.1605731, 25.6687436], [-80.1606122, 25.6687977], [-80.1606474, 25.6688588], [-80.1606511, 25.6689161], [-80.1606428, 25.6689591], [-80.1606108, 25.6690091], [-80.1606182, 25.6690951], [-80.1606649, 25.6691814], [-80.160708, 25.6692462], [-80.160727, 25.6693609], [-80.1607501, 25.6694364], [-80.1608049, 25.6695154], [-80.1608755, 25.6696055], [-80.1609303, 25.6696846], [-80.1609891, 25.6697603], [-80.1610281, 25.6698429], [-80.161071, 25.6699363], [-80.1611259, 25.6699973], [-80.1611727, 25.6700766], [-80.1612077, 25.6701556], [-80.1612348, 25.6702526], [-80.1612973, 25.6703784], [-80.16134, 25.6704789], [-80.1613867, 25.6706011], [-80.1614293, 25.6707052], [-80.1614758, 25.6708524], [-80.1615146, 25.6709637], [-80.1615493, 25.6710823], [-80.161612, 25.6711794], [-80.1616548, 25.6712586], [-80.1616937, 25.671334], [-80.1617445, 25.6714381], [-80.1617795, 25.6715315], [-80.1618143, 25.6716427], [-80.1618497, 25.671661], [-80.1618732, 25.6717112], [-80.1618964, 25.6717867], [-80.1619195, 25.6718584], [-80.1619668, 25.6718874], [-80.1620297, 25.6719594], [-80.1620565, 25.6720743], [-80.1621032, 25.6721855], [-80.1621499, 25.6723006], [-80.1621846, 25.672419], [-80.1622311, 25.6725518], [-80.162278, 25.672631], [-80.1623248, 25.672728], [-80.1623595, 25.6728644], [-80.1623941, 25.6730043], [-80.1624048, 25.6731476], [-80.162428, 25.6732375], [-80.1624628, 25.6733632], [-80.1624695, 25.6735209], [-80.1624965, 25.673632], [-80.1625352, 25.6737398], [-80.1625581, 25.673826], [-80.1625768, 25.673998], [-80.1625839, 25.6741343], [-80.1625752, 25.6742346], [-80.1625388, 25.6743527], [-80.1624946, 25.6744563], [-80.1624227, 25.6745598], [-80.1623548, 25.6746526], [-80.1622872, 25.6747059], [-80.1622077, 25.6747664], [-80.1621358, 25.674898]]}, "properties": {"project": "EC19B01", "date": "19130101", "kind": "Natural.Mean High Water", "source": "T03375"}}, {"type": "Feature", "geometry": {"type": "LineString", "coordinates": [[-80.1414289, 25.7643347], [-80.1415004999999, 25.7642849], [-80.1415327, 25.7642171], [-80.1414619, 25.7641449], [-80.1413198, 25.7640725], [-80.14117, 25.7640106], [-80.1410237, 25.7639919], [-80.1409011, 25.7639803], [-80.1407505, 25.7639974000001], [-80.1406391, 25.7640612], [-80.1405635, 25.7641469], [-80.1405389, 25.7642506], [-80.1405458999999, 25.7643867], [-80.140585, 25.7644517], [-80.140664, 25.7644808], [-80.1407984, 25.7644922], [-80.1408696, 25.7644926], [-80.140941, 25.7644751], [-80.1410638, 25.7644615], [-80.1411352, 25.7644369], [-80.1412225, 25.7644052], [-80.1413614, 25.7643594], [-80.1414289, 25.7643347]]}, "properties": {"project": "EC19B01", "date": "19130101", "kind": "Natural.Mean High Water", "source": "T03375"}}, {"type": "Feature", "geometry": {"type": "LineString", "coordinates": [[-80.1345925, 25.7629074], [-80.1347354, 25.7628544], [-80.1348387, 25.7627976], [-80.134946, 25.7627339], [-80.1350614, 25.7626593], [-80.1351689, 25.7625883], [-80.1352486, 25.7624777], [-80.1353204, 25.7623993], [-80.1353807, 25.7622921], [-80.1354126, 25.7622421], [-80.1354251, 25.7621598], [-80.1354374, 25.7621097], [-80.1355007, 25.7620741], [-80.1355567, 25.7620172], [-80.1356047, 25.7619457], [-80.1356094, 25.7618383], [-80.1356735, 25.7617491], [-80.1357098, 25.7616454], [-80.1357662, 25.7615095], [-80.1358106, 25.7613737], [-80.1358514, 25.7612233], [-80.135864, 25.7611087], [-80.1358654, 25.7609188], [-80.1358625, 25.7607791], [-80.1358872, 25.7606395], [-80.1358999, 25.760525], [-80.1359202, 25.7604533], [-80.1359408, 25.7603387], [-80.1359693, 25.7602457], [-80.1360057, 25.7601385], [-80.13605, 25.7600169], [-80.1360903, 25.7599418], [-80.1361422, 25.7598562], [-80.1361703, 25.7598026], [-80.1362028, 25.7597024], [-80.1362391, 25.7595987], [-80.1362755, 25.7594914], [-80.1363318, 25.7593663], [-80.1363484, 25.7592661], [-80.1363846, 25.7591803], [-80.1364326, 25.7591125], [-80.136445, 25.7590265], [-80.1365008, 25.7589767], [-80.1365287, 25.7589554], [-80.1365332, 25.7588693], [-80.1365458, 25.7587835], [-80.1365819, 25.7587119], [-80.136606, 25.7586513], [-80.1365951, 25.7585364], [-80.1366119, 25.7583896], [-80.1366328, 25.7582464], [-80.1366536, 25.7581068], [-80.1366708, 25.7579241], [-80.1366833, 25.7578167], [-80.1366842, 25.7576877], [-80.1366811, 25.7575802], [-80.136666, 25.7574798], [-80.1366587, 25.757408], [-80.1366789, 25.7573401], [-80.1366913, 25.7572542], [-80.1367274999999, 25.7571718], [-80.1367637, 25.7570933], [-80.1367842, 25.7570074], [-80.1368127, 25.7568893], [-80.1368372, 25.7567748], [-80.1368655, 25.7567105], [-80.1369056, 25.7566282], [-80.1369457, 25.7565747], [-80.1370174, 25.7565071], [-80.1371127, 25.7564539], [-80.1371607, 25.756386], [-80.1372324, 25.7563292], [-80.1373041, 25.7562614], [-80.1373914, 25.7562297], [-80.1374903, 25.7562198], [-80.137621, 25.7561953], [-80.1377318, 25.7561887], [-80.1379417, 25.7561899], [-80.1381318, 25.7561802], [-80.1382465, 25.7561775], [-80.1384048, 25.7561784], [-80.1385116, 25.7561899], [-80.1385786, 25.7562225], [-80.1386694, 25.7562553], [-80.1387918, 25.7562989], [-80.1388942, 25.756339], [-80.1389968, 25.7563862], [-80.1390878, 25.7563903], [-80.1392185, 25.7563911], [-80.1393255, 25.7563703], [-80.1394246999999, 25.7563385], [-80.1395596, 25.7562712], [-80.1396432, 25.756218], [-80.1397226, 25.7561683], [-80.139798, 25.7561293], [-80.1398737, 25.7560581], [-80.1399412, 25.7560263], [-80.1400639, 25.756027], [-80.1401901999999, 25.7560779], [-80.1403165, 25.7561323], [-80.1404466, 25.7561976], [-80.1405805, 25.7562952], [-80.1406552, 25.756353], [-80.1407302, 25.7564], [-80.1408562, 25.7564617], [-80.1409666, 25.7565161], [-80.1410375, 25.7565631000001], [-80.1411322, 25.7566103], [-80.1412509, 25.7566289], [-80.1413654, 25.756651], [-80.1415393, 25.7566772], [-80.1416895, 25.7566995], [-80.1418003, 25.7567181], [-80.1419147, 25.7567474], [-80.1420134, 25.7567911], [-80.1420646, 25.756838], [-80.1421037, 25.7568884], [-80.1421152, 25.756935], [-80.1421464, 25.7569926], [-80.1421936, 25.7570429], [-80.1422209999999, 25.7570682], [-80.1422288, 25.7571041], [-80.1422283, 25.7571758], [-80.1421845, 25.7572041], [-80.1421372, 25.7571932], [-80.1420623, 25.7571461], [-80.1419916, 25.757074], [-80.1419247, 25.7570270000001], [-80.1418223, 25.7569512], [-80.1416921, 25.7569074], [-80.1415499, 25.7568672], [-80.1414471, 25.7568558], [-80.1412966, 25.7568584], [-80.1412136, 25.756858], [-80.1411302, 25.7568897], [-80.1410271, 25.7569178], [-80.1409716, 25.7569389], [-80.1409162, 25.7569315], [-80.1408968, 25.7568883], [-80.1408852, 25.7568381], [-80.1408062, 25.7568306], [-80.1407425, 25.7568731], [-80.1407263, 25.7569412], [-80.1407177, 25.7570272], [-80.1407014, 25.7570844], [-80.1406378, 25.7571234], [-80.1405544, 25.7571516], [-80.1404119, 25.7571614], [-80.140297, 25.7571823], [-80.1402175, 25.7572068], [-80.14017, 25.7572425], [-80.1401025, 25.7572671], [-80.1400388, 25.7573062], [-80.1399673, 25.757356], [-80.1399116, 25.7573951], [-80.1398599, 25.7574305], [-80.1398158, 25.7575128], [-80.1397439, 25.7576127], [-80.1396879, 25.7577017], [-80.1396278, 25.7577803], [-80.1395759, 25.7578482], [-80.1395083, 25.7579086], [-80.1394407, 25.7579513], [-80.1393811, 25.757994], [-80.1393095, 25.7580473], [-80.1392495, 25.7581078], [-80.1391814999999, 25.7582113], [-80.1391338, 25.7582576], [-80.1390780999999, 25.7582968], [-80.1390459, 25.7583897], [-80.1389977, 25.758479], [-80.1389375, 25.758579], [-80.138893, 25.7587077], [-80.1388727, 25.7587864], [-80.1388447, 25.7588293], [-80.1388087, 25.7588828], [-80.1387568, 25.7589436], [-80.1387165, 25.7590329], [-80.1386604, 25.7591293], [-80.1386288, 25.7591614], [-80.138581, 25.7591969], [-80.1385447, 25.7592433], [-80.1385247, 25.7593004], [-80.1385126, 25.7593256], [-80.1384572, 25.7593358], [-80.1383977, 25.7593571], [-80.1383418, 25.7594104], [-80.1383017, 25.759489], [-80.1382734, 25.759575], [-80.1382566, 25.759711], [-80.1382715, 25.7598365], [-80.138239, 25.7599545], [-80.1382221, 25.7601013], [-80.1382333, 25.7601983], [-80.1382209, 25.7602627], [-80.1381732, 25.7602839], [-80.1381216, 25.760305], [-80.1380817, 25.7603622], [-80.1380259, 25.7604156], [-80.1379543, 25.7604653], [-80.1378946, 25.7605259], [-80.1378466, 25.760583], [-80.1377749, 25.7606542], [-80.1377033, 25.7607004], [-80.1376871, 25.7607756], [-80.1377222, 25.7608474], [-80.1377532, 25.7609229], [-80.1377523, 25.7610446], [-80.1377317, 25.7611808], [-80.1376873, 25.7612629], [-80.1376469, 25.7613559], [-80.1376464, 25.7614312], [-80.137634, 25.7615027], [-80.1375745, 25.7615489], [-80.1375385, 25.7615989], [-80.1375377, 25.7617066], [-80.1375372, 25.761778], [-80.1375087, 25.7618783], [-80.1374486, 25.7619854], [-80.1373768, 25.7620673], [-80.1373444, 25.7621712], [-80.1373122, 25.7622785], [-80.1372679999999, 25.7623428], [-80.1372038, 25.7624282], [-80.1371718, 25.7625213], [-80.137171, 25.7626324], [-80.1371702, 25.7627435], [-80.1371812, 25.7628404], [-80.1372319, 25.7629445], [-80.1372987, 25.7630238], [-80.1373731, 25.7631281], [-80.1374001, 25.7632322], [-80.1374114, 25.7633182], [-80.1374064, 25.7634437], [-80.1374054, 25.7635799], [-80.1373812, 25.7636478], [-80.1373451, 25.7637192], [-80.1373326, 25.7638015], [-80.13734, 25.7638804], [-80.137383, 25.7639415], [-80.1374381, 25.7639886], [-80.1374895, 25.763996], [-80.137541, 25.7639963], [-80.1375888, 25.7639572], [-80.1376724, 25.7638932], [-80.1377558, 25.7638327], [-80.1378749, 25.7637976], [-80.1379501, 25.7637837], [-80.1380216, 25.7637555], [-80.1380495, 25.7637271], [-80.1381132, 25.7636952], [-80.1382635, 25.7636961], [-80.138402, 25.7636969], [-80.1384811, 25.7636974], [-80.1385446, 25.7636834], [-80.1386078, 25.7636838], [-80.1387538, 25.7637312], [-80.138821, 25.7637531], [-80.1389237, 25.7637645], [-80.1390108, 25.7637829], [-80.1390739, 25.7638191], [-80.1391923, 25.7638448], [-80.1393148, 25.7638742], [-80.1394334, 25.7639072], [-80.139532, 25.7639294], [-80.1396467, 25.7639549], [-80.1397256, 25.7639842], [-80.1398007, 25.7640169], [-80.1399112, 25.7640462], [-80.1400298, 25.7640758], [-80.1401284, 25.764112], [-80.1402311, 25.7641449], [-80.1402741, 25.7641953], [-80.1402935999999, 25.7642564], [-80.1402731, 25.7643351], [-80.1402014, 25.7643884], [-80.1401064, 25.764413], [-80.1399798, 25.7644122], [-80.139865, 25.7644115], [-80.1397619, 25.7644469], [-80.1396667, 25.7644641], [-80.1395438, 25.7644956], [-80.1394409, 25.76452], [-80.1393734, 25.7645447], [-80.1392665, 25.7645512], [-80.139132, 25.7645362], [-80.1389658, 25.7645101], [-80.1388077, 25.7645056], [-80.1386971, 25.764487], [-80.1385744, 25.7644826], [-80.1384991, 25.7644822], [-80.1384677, 25.7644641], [-80.1383846, 25.7644565], [-80.1382184, 25.7644555], [-80.1380246, 25.7644436], [-80.1378582, 25.7644534], [-80.1377314, 25.7644813], [-80.1376045, 25.7645235], [-80.1375448, 25.7645662], [-80.1374692, 25.7646088], [-80.137362, 25.7646547], [-80.1372746, 25.7647079], [-80.1372186, 25.7647935], [-80.1371468, 25.7648684], [-80.1370908, 25.764954], [-80.1370704, 25.76504], [-80.1370818, 25.7651081], [-80.1370538, 25.7651473], [-80.1370062, 25.7651436], [-80.1368602, 25.7650997], [-80.1367376, 25.7650667], [-80.1366153, 25.765023], [-80.1365444, 25.7649867], [-80.1365051, 25.7649435], [-80.1363987, 25.7649033], [-80.1362643, 25.7648524], [-80.1361263, 25.764805], [-80.1360275, 25.7647757], [-80.1359606, 25.7647145], [-80.1359256, 25.7646354], [-80.1359221, 25.7645709], [-80.1359505, 25.7644851], [-80.1359628, 25.7644099], [-80.1359912, 25.7643563], [-80.1360151, 25.7642991], [-80.1360159, 25.7641915], [-80.1360203999999, 25.7641021], [-80.1359853, 25.7640409], [-80.1359226, 25.7639688], [-80.1358713, 25.7639399], [-80.1358438, 25.7639264], [-80.1357017, 25.7638564], [-80.135655, 25.7637593], [-80.135604, 25.7636874], [-80.1355767, 25.7636263], [-80.1355653, 25.7635509], [-80.1355501, 25.7635059], [-80.1355385, 25.7634721], [-80.1354518, 25.7633855], [-80.1353021, 25.7632843], [-80.1351801, 25.7632048], [-80.1350223, 25.7631357], [-80.1348844, 25.7630488], [-80.1347463, 25.7629872], [-80.1345925, 25.7629074]]}, "properties": {"project": "EC19B01", "date": "19130101", "kind": "Natural.Mean High Water", "source": "T03375"}}, {"type": "Feature", "geometry": {"type": "LineString", "coordinates": [[-80.1437392, 25.7514755], [-80.1436717, 25.7515001], [-80.1436159, 25.7515536], [-80.1435527, 25.7515783], [-80.1434851, 25.7515995], [-80.1434296, 25.751617], [-80.1433381, 25.751681], [-80.1432464, 25.7517593], [-80.1431668, 25.7518269], [-80.1430715, 25.7518837], [-80.1429526, 25.7519045], [-80.1428378, 25.7519038], [-80.1427625, 25.7519213], [-80.1426791, 25.7519495], [-80.1425999, 25.751974], [-80.1425166, 25.7519916], [-80.1424453, 25.7520054], [-80.1423502, 25.7520264], [-80.1422472, 25.7520437], [-80.1421245, 25.752043], [-80.1419742, 25.7520421], [-80.1418633, 25.752045], [-80.1416971, 25.7520513], [-80.1415702, 25.7520862], [-80.1414869, 25.7521037], [-80.1414036, 25.7521605], [-80.1413081, 25.7522102], [-80.1411733, 25.7522559], [-80.1410703, 25.7522733], [-80.1409874, 25.7522441], [-80.1409006, 25.7522257], [-80.1408094, 25.7522358000001], [-80.1407064, 25.752246], [-80.1405837, 25.7522453], [-80.1404571, 25.7522481], [-80.1403501, 25.7522691], [-80.140255, 25.7522935], [-80.1401995, 25.7523075], [-80.1401044, 25.7523105], [-80.1400256, 25.7522743], [-80.139943, 25.7522022], [-80.1399078, 25.7521445], [-80.1399008, 25.7520225], [-80.1399056, 25.7519044], [-80.1398905, 25.7517897], [-80.1398912, 25.7516928], [-80.1399157, 25.7515928], [-80.1399362, 25.7514781], [-80.1399373, 25.7513276], [-80.1399535, 25.7512811], [-80.13997, 25.7511953], [-80.1399867, 25.751077], [-80.1400112, 25.7509625], [-80.1400477, 25.7508373], [-80.1400999, 25.7507302], [-80.1401606, 25.7505693], [-80.1401928, 25.7504871], [-80.1402254, 25.7503402], [-80.1402813, 25.7502725], [-80.1403135, 25.7502046], [-80.1403339, 25.7501151], [-80.1403976, 25.7500653], [-80.1404572, 25.7500084], [-80.1405016, 25.7499119], [-80.1405734, 25.7498406], [-80.1406135, 25.7497586], [-80.1406576, 25.749669], [-80.140674, 25.7495975], [-80.1407415, 25.7495657], [-80.1407777, 25.749487], [-80.1408256, 25.7494336], [-80.1408816, 25.7493479], [-80.14089, 25.7492655], [-80.1409061, 25.7492333], [-80.1409579, 25.749187], [-80.14099, 25.74913], [-80.1410538, 25.7490694], [-80.1411178, 25.7489658], [-80.1411661, 25.7488622], [-80.1412183, 25.7487585], [-80.1412663, 25.7486693], [-80.1412908, 25.7485762], [-80.1413349, 25.7484797], [-80.1414228, 25.7483764], [-80.1415027, 25.7482729], [-80.1415072, 25.7481941], [-80.141571, 25.7481191], [-80.1416865, 25.7480303], [-80.1417227, 25.7479373], [-80.1417391, 25.7478586], [-80.1418149, 25.7478018], [-80.1418906, 25.7477017000001], [-80.1419349, 25.7475982], [-80.1420192, 25.7474124], [-80.1420749, 25.7474019], [-80.1421263, 25.7473805], [-80.1421624, 25.7473128], [-80.1421907, 25.7472413], [-80.1422229, 25.7471698], [-80.1422949, 25.7470664], [-80.142331, 25.7469913], [-80.1423828, 25.746945], [-80.1424304, 25.746913], [-80.1424747, 25.7468165], [-80.142523, 25.7467057], [-80.1425829, 25.7466236], [-80.1426432, 25.7464842], [-80.1427032, 25.7464129], [-80.1427511, 25.7463379], [-80.1428353, 25.7461951], [-80.142856, 25.7460697], [-80.1428921, 25.7459911], [-80.1429563, 25.7458876], [-80.1430085, 25.7457733], [-80.143041, 25.7456228], [-80.1430775, 25.7455407], [-80.1431332, 25.7454692], [-80.1431538, 25.7453763], [-80.1431701, 25.7452867], [-80.1432188, 25.745133], [-80.143263, 25.7450544], [-80.1432949, 25.7450008], [-80.1433233, 25.7449114], [-80.1433519, 25.7448005], [-80.1434039, 25.7447005], [-80.1434365, 25.744568], [-80.1434612, 25.7444535], [-80.1435091, 25.7443535], [-80.1435217, 25.7442603], [-80.1435777, 25.7441926], [-80.1436098, 25.7441391], [-80.1436303999999, 25.7440281], [-80.1436589, 25.743917], [-80.1436833, 25.7438241], [-80.1437392, 25.7437528], [-80.1437872, 25.7436886], [-80.1438153, 25.7436101], [-80.1438476, 25.7435347], [-80.1438719, 25.743449], [-80.1439042, 25.7433524], [-80.1439444, 25.7432595], [-80.1439689, 25.74317], [-80.1439857, 25.7430375], [-80.1439828, 25.742869], [-80.1439994999999, 25.7427581], [-80.1440241, 25.7426507], [-80.1440487, 25.7425254], [-80.1440732, 25.7424072], [-80.1440939, 25.7422856], [-80.1441147, 25.7421531], [-80.1441595, 25.7419742], [-80.1442, 25.7418382], [-80.1442806, 25.7416418], [-80.1443369, 25.741513], [-80.1444094, 25.7413413], [-80.1444579, 25.7412018], [-80.1445025, 25.7410408], [-80.1445352, 25.7408941], [-80.1445758999999, 25.7407366], [-80.1446165, 25.7405864], [-80.1446571, 25.7404361], [-80.1446615999999, 25.7403716], [-80.1446898, 25.7403001], [-80.1447458, 25.7402073], [-80.1447822, 25.7400999], [-80.1448106, 25.7400106], [-80.1448349, 25.7399032], [-80.1448635, 25.7398138], [-80.1449196, 25.7397066], [-80.1449797, 25.7395959], [-80.1450356, 25.7395173], [-80.1450878, 25.7394209], [-80.1451559, 25.7393066], [-80.1452121, 25.7391923], [-80.145272, 25.7391245], [-80.1453395, 25.7390784], [-80.1453873, 25.7390427], [-80.1454313, 25.7389822], [-80.1454872, 25.7389143], [-80.1455629, 25.7388358], [-80.1456148, 25.7387682], [-80.1456943, 25.7387077], [-80.1457659, 25.7386579], [-80.1458415, 25.7386155], [-80.1459368, 25.7385622], [-80.1460162, 25.7385161], [-80.1460839, 25.738452], [-80.146144, 25.7383591], [-80.1461882, 25.7382842], [-80.1462719, 25.7381771], [-80.1463795, 25.7380775], [-80.146487, 25.7379813], [-80.1465823, 25.7379245], [-80.1466578, 25.7378677], [-80.146753, 25.7378467], [-80.1468164, 25.7378256], [-80.1468642, 25.7377828], [-80.1469435, 25.7377584], [-80.1470068, 25.737773], [-80.1470659, 25.7377912], [-80.1471571, 25.7377918], [-80.1472561, 25.7377672], [-80.1474066, 25.7377503], [-80.1474978, 25.7377472], [-80.1475569999999, 25.7377367], [-80.147601, 25.7376797], [-80.1476843, 25.7376407], [-80.1477676, 25.7376197], [-80.1478587, 25.7375916], [-80.1479342, 25.7375419], [-80.1479939, 25.7375064], [-80.1480969, 25.7374748], [-80.1481843, 25.737425], [-80.1482916, 25.7373683], [-80.1484145, 25.7373225], [-80.1484904, 25.7372476], [-80.1485419, 25.7372121], [-80.1486173, 25.7372054000001], [-80.1486766, 25.737195], [-80.1487126, 25.7371271], [-80.1487643, 25.7371095], [-80.1488319, 25.737074], [-80.1488951, 25.7370637], [-80.1489427, 25.7370675], [-80.1489943, 25.7370427], [-80.1490697, 25.7370073], [-80.1491608, 25.7370079], [-80.1492362, 25.736976], [-80.1493313, 25.7369479], [-80.1494542, 25.7369164], [-80.149593, 25.736867], [-80.1496565, 25.7368387], [-80.1497752, 25.7368323], [-80.1498663, 25.736822], [-80.1498983, 25.7367793], [-80.1499775, 25.7367617], [-80.1500843, 25.7367552], [-80.1501556, 25.7367557], [-80.1501993, 25.7367345], [-80.1503061, 25.7367351], [-80.1503814, 25.7367139], [-80.150433, 25.7366713], [-80.1505127, 25.7366358], [-80.1505997, 25.7366184], [-80.1506473, 25.7366044], [-80.1507227, 25.7365726], [-80.1508217, 25.7365731], [-80.1508968, 25.7365736], [-80.1509722, 25.7365311], [-80.1510596, 25.7364886], [-80.1511825, 25.7364606], [-80.1512816, 25.7364362], [-80.1513648, 25.736415], [-80.1514482, 25.7363726], [-80.1515709, 25.7363661], [-80.1516383, 25.7363594], [-80.1517374, 25.7363313], [-80.1518645, 25.736271], [-80.1519318, 25.7362427], [-80.1520189, 25.7362327], [-80.1521101, 25.7362333], [-80.1522251, 25.7362051], [-80.1523834, 25.7361773], [-80.1525221, 25.7361567], [-80.1525578, 25.7361354], [-80.1526608, 25.7361073], [-80.1527878, 25.736065], [-80.1529266, 25.7360228], [-80.1530653, 25.7359734], [-80.1531607, 25.7359238], [-80.1532205, 25.7358632], [-80.1533156, 25.7358315], [-80.1534188, 25.7357926], [-80.1534703, 25.7357821], [-80.1535536, 25.735754], [-80.1536412, 25.7356794], [-80.1537365, 25.7356261], [-80.1538475999999, 25.7355766], [-80.1539746, 25.7355344], [-80.1540778, 25.7354776], [-80.1541651, 25.7354386], [-80.1542523, 25.7354212], [-80.1543476, 25.735386], [-80.1544428, 25.7353472], [-80.1545694, 25.7353479], [-80.1546528, 25.7353089], [-80.1548076, 25.7352239000001], [-80.1549624, 25.7351567], [-80.1550777, 25.7350964], [-80.1551373, 25.7350465], [-80.1552604, 25.7349864], [-80.1553557, 25.7349368], [-80.1554075, 25.7348869], [-80.1555461, 25.7348769], [-80.1555978, 25.7348379], [-80.1556535, 25.7347916], [-80.1557486, 25.7347562], [-80.1558401, 25.7347066], [-80.1559511, 25.7346785], [-80.1559987, 25.734643], [-80.156098, 25.7345899], [-80.1562171, 25.7345475], [-80.1563796, 25.7345018], [-80.1564708, 25.7344558], [-80.1565187, 25.7344023], [-80.1566337, 25.7343743], [-80.156729, 25.7343321], [-80.1568005, 25.7343], [-80.1568834, 25.7342791], [-80.1569352, 25.7342614], [-80.156995, 25.7342045], [-80.1570744, 25.7341619], [-80.1571814, 25.7341303], [-80.1573163, 25.7340952], [-80.1574549, 25.7340638], [-80.1575146, 25.7340211], [-80.1575663, 25.7339891], [-80.1576692, 25.7339683], [-80.1577681, 25.7339472], [-80.1578676, 25.7339012], [-80.1579866, 25.7338411], [-80.1581213, 25.7338238], [-80.1581807, 25.7337956], [-80.15828, 25.7337711], [-80.1583911, 25.7337143], [-80.1585064, 25.7336542], [-80.1586054, 25.7336296], [-80.1586847, 25.7336121], [-80.1587878, 25.7335626], [-80.1588595, 25.7334985], [-80.1589944, 25.7334456], [-80.1590857, 25.7334101], [-80.159173, 25.7333713], [-80.1592921, 25.7333254], [-80.1593914, 25.7332542], [-80.1594709, 25.7332082], [-80.1595660999999, 25.7331728], [-80.1596931, 25.7331127], [-80.1598321, 25.7330382], [-80.1599077, 25.7329777], [-80.1599911, 25.7329388], [-80.1600547, 25.7328997], [-80.1601142, 25.7328713], [-80.1601738, 25.7328323], [-80.1602889, 25.7327935], [-80.1603404, 25.7327796], [-80.1603924, 25.7327118], [-80.1604679, 25.7326512], [-80.1605713, 25.7325837], [-80.1606861, 25.7325629], [-80.1607459, 25.7325167], [-80.1607936, 25.7324632], [-80.1609363, 25.7324281], [-80.1610158, 25.7323858], [-80.1610834, 25.7323429], [-80.1611272, 25.7322896], [-80.1612146, 25.7322435], [-80.1613376, 25.7321976], [-80.1614527, 25.7321302], [-80.1615403, 25.7320589], [-80.1616594, 25.7320061], [-80.1617986, 25.7319135], [-80.1618861, 25.731846], [-80.1619577, 25.7317962], [-80.1620569, 25.7317394], [-80.1621684, 25.7316576], [-80.1622242, 25.731597], [-80.1622956, 25.7315615], [-80.1623869, 25.7315226], [-80.1624585, 25.7314658], [-80.1625142, 25.7313944], [-80.1625463, 25.7313516], [-80.1626454, 25.7313163], [-80.1627803, 25.7312669], [-80.1628757, 25.7312066], [-80.1629471, 25.7311783], [-80.1630701, 25.7311324], [-80.1631693, 25.7311008], [-80.1632883, 25.7310619], [-80.1634706, 25.731038], [-80.1635931, 25.7310351], [-80.1637118, 25.7310215], [-80.1638581, 25.7310223], [-80.1639531, 25.7310335], [-80.1640322, 25.7310448], [-80.164108, 25.7310686], [-80.1641603, 25.7310899]]}, "properties": {"project": "EC19B01", "date": "19130101", "kind": "Natural.Mean High Water", "source": "T03375"}}, {"type": "Feature", "geometry": {"type": "LineString", "coordinates": [[-80.1558255, 25.6668884], [-80.1558649, 25.6668315], [-80.1559168, 25.6667744], [-80.1559648, 25.6666995], [-80.1559891, 25.6666024]]}, "properties": {"project": "EC19B01", "date": "19130101", "kind": "Undetermined.Approximate", "source": "T03375"}}, {"type": "Feature", "geometry": {"type": "LineString", "coordinates": [[-80.1328755, 25.7653463], [-80.1327633, 25.7652456], [-80.1325387, 25.7651369], [-80.1323416, 25.7650461], [-80.1322154, 25.7649773], [-80.1321125, 25.7649659], [-80.1320376, 25.7649261], [-80.1319273, 25.7648645], [-80.1318485, 25.7648138], [-80.1317381, 25.7647593], [-80.1316275, 25.7647301], [-80.1315369, 25.764683], [-80.1314225, 25.7646141], [-80.131308, 25.7645955], [-80.1311895, 25.7645519], [-80.131087, 25.7645082], [-80.1309725, 25.764468], [-80.1308384, 25.7643885], [-80.1307833, 25.7643595], [-80.1306962, 25.7643517], [-80.1305934, 25.7643118], [-80.1304753, 25.7642716], [-80.1303492, 25.7641957], [-80.1302506, 25.7641412], [-80.1301833, 25.7641229], [-80.130191, 25.7641839], [-80.1302578, 25.7642308], [-80.1303288, 25.7642637], [-80.1304118, 25.7642892], [-80.1304751, 25.7643003], [-80.1305619, 25.764333], [-80.1306291, 25.7643513], [-80.1307, 25.7643769], [-80.130791, 25.7643989], [-80.130862, 25.7644351], [-80.1309485, 25.7644895], [-80.1310551, 25.7645259], [-80.1311656, 25.7645732], [-80.1312484, 25.7646024], [-80.1313193, 25.7646565], [-80.1314179, 25.7647108], [-80.1315637, 25.764787], [-80.1317138, 25.7648345], [-80.1318401, 25.7648854], [-80.1319389, 25.7649147], [-80.1320373, 25.764969], [-80.1321874, 25.7650273], [-80.1323295, 25.7650749], [-80.132428, 25.7651182], [-80.1325148, 25.7651653], [-80.1326293, 25.7652055], [-80.1326725, 25.7652451], [-80.1327395, 25.7652886], [-80.1328024, 25.7653283], [-80.1328755, 25.7653463]]}, "properties": {"project": "EC19B01", "date": "19130101", "kind": "Undetermined Alongshore Feature", "source": "T03375"}}, {"type": "Feature", "geometry": {"type": "LineString", "coordinates": [[-80.1601292, 25.6671858], [-80.1603432, 25.6671201]]}, "properties": {"project": "EC19B01", "date": "19130101", "kind": "Undetermined Alongshore Feature", "source": "T03375"}}, {"type": "Feature", "geometry": {"type": "LineString", "coordinates": [[-80.1345925, 25.7629074], [-80.1343983, 25.7628153], [-80.1342603, 25.7627356], [-80.134134, 25.7626882], [-80.1340118, 25.7626301], [-80.1338618, 25.7625647], [-80.1337355, 25.7625138], [-80.1336527, 25.7624954], [-80.1335263, 25.7624303], [-80.1333804, 25.7623683], [-80.1332503, 25.7623031], [-80.1331282, 25.7622235], [-80.1330771, 25.7621766], [-80.1329704, 25.762158], [-80.1328836, 25.7621182], [-80.1327849, 25.7620745], [-80.1326903, 25.7620382], [-80.132556, 25.7619872], [-80.1324103, 25.7619002], [-80.1322367, 25.7618133], [-80.1320949, 25.76173], [-80.1319414, 25.7616251], [-80.1318585, 25.7615886], [-80.1317363, 25.7615271], [-80.1315668, 25.7614258], [-80.1313892, 25.7613531], [-80.1312236, 25.761277], [-80.1310539, 25.7611826], [-80.1309398, 25.7611318], [-80.1308213, 25.7610916], [-80.1306992, 25.7610122], [-80.130561, 25.7609539], [-80.130514, 25.7609106], [-80.1304818999999, 25.7609606], [-80.1305605, 25.7610255], [-80.1307025, 25.7610909], [-80.1308051, 25.7611381], [-80.1309509, 25.7612106], [-80.131097, 25.7612832], [-80.1311874, 25.761359], [-80.1313213, 25.7614314], [-80.131428, 25.7614859], [-80.1315739, 25.7615405], [-80.1316843, 25.7615913], [-80.1318225, 25.7616495], [-80.1318971, 25.7617037], [-80.1319916, 25.761776], [-80.1320706, 25.7618158], [-80.1321928, 25.7618775], [-80.1322716, 25.761921], [-80.1323542, 25.7619752], [-80.1324885, 25.7620407], [-80.1325672, 25.7620911], [-80.1326857, 25.7621313], [-80.1327726, 25.7621462], [-80.1329067, 25.7622043], [-80.1329933, 25.7622693], [-80.1331117, 25.7623237], [-80.1331982, 25.762378], [-80.1333011, 25.7623964], [-80.1333762, 25.7624078], [-80.1334392, 25.7624332], [-80.1335142, 25.7624873], [-80.1336441, 25.762542], [-80.1337864, 25.7625965], [-80.13396, 25.7626764], [-80.1340428, 25.762727], [-80.1341374, 25.7627671], [-80.1342361, 25.7628035], [-80.1342873, 25.7628146], [-80.1343467, 25.7628364], [-80.1344058, 25.762862], [-80.1344966, 25.762891], [-80.1345925, 25.7629074]]}, "properties": {"project": "EC19B01", "date": "19130101", "kind": "Undetermined Alongshore Feature", "source": "T03375"}}, {"type": "Feature", "geometry": {"type": "LineString", "coordinates": [[-80.1439172, 25.751453], [-80.1437392, 25.7514755]]}, "properties": {"project": "EC19B01", "date": "19130101", "kind": "User Added Line", "source": "T03375"}}]}